[{"OBJECT_NAME":"BLUEBON","OBJECT_ID":"2025-009CH","EPOCH":"2026-03-09T16:52:33.225312","MEAN_MOTION":15.29047254,"ECCENTRICITY":0.00011933,"INCLINATION":97.4017,"RA_OF_ASC_NODE":152.2033,"ARG_OF_PERICENTER":43.39,"MEAN_ANOMALY":316.7434,"EPHEMERIS_TYPE":0,"CLASSIFICATION_TYPE":"U","NORAD_CAT_ID":62688,"ELEMENT_SET_NO":999,"REV_AT_EPOCH":6376,"BSTAR":0.00037313027,"MEAN_MOTION_DOT":0.00010452,"MEAN_MOTION_DDOT":0},{"OBJECT_NAME":"STARLINK-35391","OBJECT_ID":"2025-270AE","EPOCH":"2026-03-09T22:55:30.056736","MEAN_MOTION":15.27597344,"ECCENTRICITY":0.00012095,"INCLINATION":43.002,"RA_OF_ASC_NODE":54.9184,"ARG_OF_PERICENTER":183.6538,"MEAN_ANOMALY":176.4305,"EPHEMERIS_TYPE":0,"CLASSIFICATION_TYPE":"U","NORAD_CAT_ID":66616,"ELEMENT_SET_NO":999,"REV_AT_EPOCH":1785,"BSTAR":0.0012332792,"MEAN_MOTION_DOT":0.00033849,"MEAN_MOTION_DDOT":0}]
